{
  "type": "FeatureCollection",
  "features": [
    {
      "type": "Feature",
      "properties": {
        "norad_id": 42989,
        "name": "SKYSAT-C9",
        "group": "resource",
        "lat": -54.75429399030254,
        "lon": -66.61330240163261,
        "alt_km": 471.48700664139506,
        "timestamp": "2025-12-19T16:54:43.908611+00:00",
        "meta_object_name": "SKYSAT-C9",
        "meta_object_id": "2017-068C",
        "meta_epoch": "2025-12-18T22:41:41.803008",
        "meta_mean_motion": 15.36203039,
        "meta_eccentricity": 0.0010548,
        "meta_inclination": 97.4193,
        "meta_ra_of_asc_node": 123.2487,
        "meta_arg_of_pericenter": 67.9248,
        "meta_mean_anomaly": 292.3115,
        "meta_ephemeris_type": 0,
        "meta_classification_type": "U",
        "meta_norad_cat_id": 42989,
        "meta_element_set_no": 999,
        "meta_rev_at_epoch": 45503,
        "meta_bstar": 0.00029759929,
        "meta_mean_motion_dot": 0.00010438,
        "meta_mean_motion_ddot": 0,
        "tle_line1": "1 42989U 17068C   25352.94562272  .00010438  00000+0  29760-3 0  9990",
        "tle_line2": "2 42989  97.4193 123.2487 0010548  67.9248 292.3115 15.36203039455030"
      },
      "geometry": {
        "type": "Point",
        "coordinates": [
          -66.61330240163261,
          -54.75429399030254
        ]
      }
    },
    {
      "type": "Feature",
      "properties": {
        "norad_id": 42990,
        "name": "SKYSAT-C8",
        "group": "resource",
        "lat": 51.78543508671866,
        "lon": -46.726133446393305,
        "alt_km": 462.7112441022755,
        "timestamp": "2025-12-19T16:54:43.908624+00:00",
        "meta_object_name": "SKYSAT-C8",
        "meta_object_id": "2017-068D",
        "meta_epoch": "2025-12-18T19:59:35.453472",
        "meta_mean_motion": 15.33051371,
        "meta_eccentricity": 0.00011703,
        "meta_inclination": 97.4282,
        "meta_ra_of_asc_node": 122.8599,
        "meta_arg_of_pericenter": 316.3061,
        "meta_mean_anomaly": 43.8088,
        "meta_ephemeris_type": 0,
        "meta_classification_type": "U",
        "meta_norad_cat_id": 42990,
        "meta_element_set_no": 999,
        "meta_rev_at_epoch": 45464,
        "meta_bstar": 0.00030081895,
        "meta_mean_motion_dot": 9.527e-05,
        "meta_mean_motion_ddot": 0,
        "tle_line1": "1 42990U 17068D   25352.83304923  .00009527  00000+0  30082-3 0  9993",
        "tle_line2": "2 42990  97.4282 122.8599 0001170 316.3061  43.8088 15.33051371454646"
      },
      "geometry": {
        "type": "Point",
        "coordinates": [
          -46.726133446393305,
          51.78543508671866
        ]
      }
    },
    {
      "type": "Feature",
      "properties": {
        "norad_id": 42991,
        "name": "SKYSAT-C7",
        "group": "resource",
        "lat": -31.89365733122697,
        "lon": 129.42828515046037,
        "alt_km": 472.71784125203976,
        "timestamp": "2025-12-19T16:54:43.908635+00:00",
        "meta_object_name": "SKYSAT-C7",
        "meta_object_id": "2017-068E",
        "meta_epoch": "2025-12-18T22:14:48.659712",
        "meta_mean_motion": 15.32453251,
        "meta_eccentricity": 0.00072381,
        "meta_inclination": 97.429,
        "meta_ra_of_asc_node": 123.9903,
        "meta_arg_of_pericenter": 38.2093,
        "meta_mean_anomaly": 321.9661,
        "meta_ephemeris_type": 0,
        "meta_classification_type": "U",
        "meta_norad_cat_id": 42991,
        "meta_element_set_no": 999,
        "meta_rev_at_epoch": 45472,
        "meta_bstar": 0.00029204968,
        "meta_mean_motion_dot": 9.081e-05,
        "meta_mean_motion_ddot": 0,
        "tle_line1": "1 42991U 17068E   25352.92695208  .00009081  00000+0  29205-3 0  9993",
        "tle_line2": "2 42991  97.4290 123.9903 0007238  38.2093 321.9661 15.32453251454721"
      },
      "geometry": {
        "type": "Point",
        "coordinates": [
          129.42828515046037,
          -31.89365733122697
        ]
      }
    },
    {
      "type": "Feature",
      "properties": {
        "norad_id": 42992,
        "name": "SKYSAT-C6",
        "group": "resource",
        "lat": 62.88657716899378,
        "lon": 110.43279824515128,
        "alt_km": 461.4123287839411,
        "timestamp": "2025-12-19T16:54:43.908645+00:00",
        "meta_object_name": "SKYSAT-C6",
        "meta_object_id": "2017-068F",
        "meta_epoch": "2025-12-18T20:15:03.221856",
        "meta_mean_motion": 15.31610998,
        "meta_eccentricity": 0.00050359,
        "meta_inclination": 97.4323,
        "meta_ra_of_asc_node": 124.3405,
        "meta_arg_of_pericenter": 66.0941,
        "meta_mean_anomaly": 294.0827,
        "meta_ephemeris_type": 0,
        "meta_classification_type": "U",
        "meta_norad_cat_id": 42992,
        "meta_element_set_no": 999,
        "meta_rev_at_epoch": 45469,
        "meta_bstar": 0.00029301506,
        "meta_mean_motion_dot": 8.87e-05,
        "meta_mean_motion_ddot": 0,
        "tle_line1": "1 42992U 17068F   25352.84378729  .00008870  00000+0  29302-3 0  9994",
        "tle_line2": "2 42992  97.4323 124.3405 0005035  66.0941 294.0827 15.31610998454697"
      },
      "geometry": {
        "type": "Point",
        "coordinates": [
          110.43279824515128,
          62.88657716899378
        ]
      }
    },
    {
      "type": "Feature",
      "properties": {
        "norad_id": 43111,
        "name": "CARTOSAT-2F",
        "group": "resource",
        "lat": -42.57660938092874,
        "lon": -135.6573553138847,
        "alt_km": 515.3921362181873,
        "timestamp": "2025-12-19T16:54:43.908655+00:00",
        "meta_object_name": "CARTOSAT-2F",
        "meta_object_id": "2018-004A",
        "meta_epoch": "2025-12-19T08:01:47.837280",
        "meta_mean_motion": 15.19183546,
        "meta_eccentricity": 0.000146,
        "meta_inclination": 97.4315,
        "meta_ra_of_asc_node": 50.8665,
        "meta_arg_of_pericenter": 110.6627,
        "meta_mean_anomaly": 249.4764,
        "meta_ephemeris_type": 0,
        "meta_classification_type": "U",
        "meta_norad_cat_id": 43111,
        "meta_element_set_no": 999,
        "meta_rev_at_epoch": 44002,
        "meta_bstar": 0.00015131259,
        "meta_mean_motion_dot": 3.115e-05,
        "meta_mean_motion_ddot": 0,
        "tle_line1": "1 43111U 18004A   25353.33458145  .00003115  00000+0  15131-3 0  9997",
        "tle_line2": "2 43111  97.4315  50.8665 0001460 110.6627 249.4764 15.19183546440024"
      },
      "geometry": {
        "type": "Point",
        "coordinates": [
          -135.6573553138847,
          -42.57660938092874
        ]
      }
    },
    {
      "type": "Feature",
      "properties": {
        "norad_id": 43259,
        "name": "GAOFEN-1 02",
        "group": "resource",
        "lat": -3.480465592790559,
        "lon": 51.99204642854527,
        "alt_km": 645.5602676826402,
        "timestamp": "2025-12-19T16:54:43.908666+00:00",
        "meta_object_name": "GAOFEN-1 02",
        "meta_object_id": "2018-031A",
        "meta_epoch": "2025-12-19T07:10:08.109408",
        "meta_mean_motion": 14.7642813,
        "meta_eccentricity": 0.00021825,
        "meta_inclination": 98.0803,
        "meta_ra_of_asc_node": 51.0909,
        "meta_arg_of_pericenter": 191.8884,
        "meta_mean_anomaly": 168.2274,
        "meta_ephemeris_type": 0,
        "meta_classification_type": "U",
        "meta_norad_cat_id": 43259,
        "meta_element_set_no": 999,
        "meta_rev_at_epoch": 41615,
        "meta_bstar": 8.6493438e-05,
        "meta_mean_motion_dot": 5.49e-06,
        "meta_mean_motion_ddot": 0,
        "tle_line1": "1 43259U 18031A   25353.29870497  .00000549  00000+0  86493-4 0  9991",
        "tle_line2": "2 43259  98.0803  51.0909 0002182 191.8884 168.2274 14.76428130416152"
      },
      "geometry": {
        "type": "Point",
        "coordinates": [
          51.99204642854527,
          -3.480465592790559
        ]
      }
    },
    {
      "type": "Feature",
      "properties": {
        "norad_id": 43260,
        "name": "GAOFEN-1 03",
        "group": "resource",
        "lat": 66.29845078212135,
        "lon": -109.74926432632554,
        "alt_km": 635.2917032822206,
        "timestamp": "2025-12-19T16:54:43.908676+00:00",
        "meta_object_name": "GAOFEN-1 03",
        "meta_object_id": "2018-031B",
        "meta_epoch": "2025-12-19T06:38:46.276800",
        "meta_mean_motion": 14.76449586,
        "meta_eccentricity": 0.0001725,
        "meta_inclination": 98.079,
        "meta_ra_of_asc_node": 50.9447,
        "meta_arg_of_pericenter": 288.2692,
        "meta_mean_anomaly": 71.8329,
        "meta_ephemeris_type": 0,
        "meta_classification_type": "U",
        "meta_norad_cat_id": 43260,
        "meta_element_set_no": 999,
        "meta_rev_at_epoch": 41614,
        "meta_bstar": 0.00010246978,
        "meta_mean_motion_dot": 6.61e-06,
        "meta_mean_motion_ddot": 0,
        "tle_line1": "1 43260U 18031B   25353.27692450  .00000661  00000+0  10247-3 0  9990",
        "tle_line2": "2 43260  98.0790  50.9447 0001725 288.2692  71.8329 14.76449586416141"
      },
      "geometry": {
        "type": "Point",
        "coordinates": [
          -109.74926432632554,
          66.29845078212135
        ]
      }
    }
  ]
}